CCSDS_OMM_VERS = 2.0
CREATION_DATE  = 
ORIGINATOR     = 

OBJECT_NAME    = SL-16 R/B
OBJECT_ID      = 1998-043G
CENTER_NAME    = EARTH
REF_FRAME      = TEME
TIME_SYSTEM    = UTC
MEAN_ELEMENT_THEORY = SGP/SGP4

EPOCH          = 2026-01-24T19:25:10.134048
MEAN_MOTION    = 14.26038000
ECCENTRICITY   = .00105207
INCLINATION    = 98.8185
RA_OF_ASC_NODE = 337.8817
ARG_OF_PERICENTER = 137.0192
MEAN_ANOMALY   = 223.1811

EPHEMERIS_TYPE = 0
CLASSIFICATION_TYPE = U
NORAD_CAT_ID   = 25400
ELEMENT_SET_NO = 999
REV_AT_EPOCH   = 43273
BSTAR          = .85457498E-4
MEAN_MOTION_DOT = .159E-5
MEAN_MOTION_DDOT = 0

CCSDS_OMM_VERS = 2.0
CREATION_DATE  = 
ORIGINATOR     = 

OBJECT_NAME    = SL-16 R/B
OBJECT_ID      = 1998-045B
CENTER_NAME    = EARTH
REF_FRAME      = TEME
TIME_SYSTEM    = UTC
MEAN_ELEMENT_THEORY = SGP/SGP4

EPOCH          = 2026-01-25T03:12:37.732320
MEAN_MOTION    = 14.16186592
ECCENTRICITY   = .0005124
INCLINATION    = 71.0108
RA_OF_ASC_NODE = 273.1720
ARG_OF_PERICENTER = 93.0192
MEAN_ANOMALY   = 267.1518

EPHEMERIS_TYPE = 0
CLASSIFICATION_TYPE = U
NORAD_CAT_ID   = 25407
ELEMENT_SET_NO = 999
REV_AT_EPOCH   = 42093
BSTAR          = .10577E-3
MEAN_MOTION_DOT = .162E-5
MEAN_MOTION_DDOT = 0

CCSDS_OMM_VERS = 2.0
CREATION_DATE  = 
ORIGINATOR     = 

OBJECT_NAME    = ISS (ZARYA)
OBJECT_ID      = 1998-067A
CENTER_NAME    = EARTH
REF_FRAME      = TEME
TIME_SYSTEM    = UTC
MEAN_ELEMENT_THEORY = SGP/SGP4

EPOCH          = 2026-01-24T19:40:05.974176
MEAN_MOTION    = 15.48158028
ECCENTRICITY   = .0011027
INCLINATION    = 51.6323
RA_OF_ASC_NODE = 289.2130
ARG_OF_PERICENTER = 26.4083
MEAN_ANOMALY   = 333.7465

EPHEMERIS_TYPE = 0
CLASSIFICATION_TYPE = U
NORAD_CAT_ID   = 25544
ELEMENT_SET_NO = 999
REV_AT_EPOCH   = 54953
BSTAR          = .32584E-3
MEAN_MOTION_DOT = .17054E-3
MEAN_MOTION_DDOT = 0

CCSDS_OMM_VERS = 2.0
CREATION_DATE  = 
ORIGINATOR     = 

OBJECT_NAME    = CZ-4B R/B
OBJECT_ID      = 1999-025C
CENTER_NAME    = EARTH
REF_FRAME      = TEME
TIME_SYSTEM    = UTC
MEAN_ELEMENT_THEORY = SGP/SGP4

EPOCH          = 2026-01-25T03:18:49.815648
MEAN_MOTION    = 14.18255889
ECCENTRICITY   = .0038153
INCLINATION    = 98.6708
RA_OF_ASC_NODE = 70.4346
ARG_OF_PERICENTER = 109.7861
MEAN_ANOMALY   = 317.1534

EPHEMERIS_TYPE = 0
CLASSIFICATION_TYPE = U
NORAD_CAT_ID   = 25732
ELEMENT_SET_NO = 999
REV_AT_EPOCH   = 38199
BSTAR          = .80856E-4
MEAN_MOTION_DOT = .125E-5
MEAN_MOTION_DDOT = 0

CCSDS_OMM_VERS = 2.0
CREATION_DATE  = 
ORIGINATOR     = 

OBJECT_NAME    = OKEAN-O
OBJECT_ID      = 1999-039A
CENTER_NAME    = EARTH
REF_FRAME      = TEME
TIME_SYSTEM    = UTC
MEAN_ELEMENT_THEORY = SGP/SGP4

EPOCH          = 2026-01-25T02:53:51.859104
MEAN_MOTION    = 14.80256341
ECCENTRICITY   = .0001878
INCLINATION    = 97.9534
RA_OF_ASC_NODE = 85.4346
ARG_OF_PERICENTER = 98.9251
MEAN_ANOMALY   = 261.2173

EPHEMERIS_TYPE = 0
CLASSIFICATION_TYPE = U
NORAD_CAT_ID   = 25860
ELEMENT_SET_NO = 999
REV_AT_EPOCH   = 42794
BSTAR          = .20109E-3
MEAN_MOTION_DOT = .1478E-4
MEAN_MOTION_DDOT = 0

CCSDS_OMM_VERS = 2.0
CREATION_DATE  = 
ORIGINATOR     = 

OBJECT_NAME    = SL-16 R/B
OBJECT_ID      = 1999-039B
CENTER_NAME    = EARTH
REF_FRAME      = TEME
TIME_SYSTEM    = UTC
MEAN_ELEMENT_THEORY = SGP/SGP4

EPOCH          = 2026-01-25T03:24:16.557984
MEAN_MOTION    = 14.81663786
ECCENTRICITY   = .0015704
INCLINATION    = 98.0060
RA_OF_ASC_NODE = 84.2827
ARG_OF_PERICENTER = 42.8461
MEAN_ANOMALY   = 317.3972

EPHEMERIS_TYPE = 0
CLASSIFICATION_TYPE = U
NORAD_CAT_ID   = 25861
ELEMENT_SET_NO = 999
REV_AT_EPOCH   = 43041
BSTAR          = .15527E-3
MEAN_MOTION_DOT = .117E-4
MEAN_MOTION_DDOT = 0

CCSDS_OMM_VERS = 2.0
CREATION_DATE  = 
ORIGINATOR     = 

OBJECT_NAME    = DELTA 2 R/B
OBJECT_ID      = 1999-041E
CENTER_NAME    = EARTH
REF_FRAME      = TEME
TIME_SYSTEM    = UTC
MEAN_ELEMENT_THEORY = SGP/SGP4

EPOCH          = 2026-01-24T16:35:07.351584
MEAN_MOTION    = 14.11622434
ECCENTRICITY   = .05029561
INCLINATION    = 51.7623
RA_OF_ASC_NODE = 116.9731
ARG_OF_PERICENTER = 218.4249
MEAN_ANOMALY   = 137.9846

EPHEMERIS_TYPE = 0
CLASSIFICATION_TYPE = U
NORAD_CAT_ID   = 25876
ELEMENT_SET_NO = 999
REV_AT_EPOCH   = 35681
BSTAR          = .65649079E-3
MEAN_MOTION_DOT = .3852E-4
MEAN_MOTION_DDOT = 0

CCSDS_OMM_VERS = 2.0
CREATION_DATE  = 
ORIGINATOR     = 

OBJECT_NAME    = HELIOS 1B
OBJECT_ID      = 1999-064A
CENTER_NAME    = EARTH
REF_FRAME      = TEME
TIME_SYSTEM    = UTC
MEAN_ELEMENT_THEORY = SGP/SGP4

EPOCH          = 2026-01-24T15:45:16.795296
MEAN_MOTION    = 14.87495541
ECCENTRICITY   = .00012528
INCLINATION    = 98.1731
RA_OF_ASC_NODE = 285.5976
ARG_OF_PERICENTER = 133.9309
MEAN_ANOMALY   = 226.2010

EPHEMERIS_TYPE = 0
CLASSIFICATION_TYPE = U
NORAD_CAT_ID   = 25977
ELEMENT_SET_NO = 999
REV_AT_EPOCH   = 67871
BSTAR          = .36076412E-3
MEAN_MOTION_DOT = .3212E-4
MEAN_MOTION_DDOT = 0

CCSDS_OMM_VERS = 2.0
CREATION_DATE  = 
ORIGINATOR     = 

OBJECT_NAME    = TERRA
OBJECT_ID      = 1999-068A
CENTER_NAME    = EARTH
REF_FRAME      = TEME
TIME_SYSTEM    = UTC
MEAN_ELEMENT_THEORY = SGP/SGP4

EPOCH          = 2026-01-25T03:46:15.804768
MEAN_MOTION    = 14.60962389
ECCENTRICITY   = .0001649
INCLINATION    = 97.9683
RA_OF_ASC_NODE = 80.2349
ARG_OF_PERICENTER = 353.8887
MEAN_ANOMALY   = 67.4686

EPHEMERIS_TYPE = 0
CLASSIFICATION_TYPE = U
NORAD_CAT_ID   = 25994
ELEMENT_SET_NO = 999
REV_AT_EPOCH   = 38872
BSTAR          = .18965E-3
MEAN_MOTION_DOT = .885E-5
MEAN_MOTION_DDOT = 0

CCSDS_OMM_VERS = 2.0
CREATION_DATE  = 
ORIGINATOR     = 

OBJECT_NAME    = SL-16 R/B
OBJECT_ID      = 2000-006B
CENTER_NAME    = EARTH
REF_FRAME      = TEME
TIME_SYSTEM    = UTC
MEAN_ELEMENT_THEORY = SGP/SGP4

EPOCH          = 2026-01-24T03:34:08.868000
MEAN_MOTION    = 14.15813685
ECCENTRICITY   = .0018683
INCLINATION    = 71.0005
RA_OF_ASC_NODE = 191.4880
ARG_OF_PERICENTER = 251.5243
MEAN_ANOMALY   = 108.3850

EPHEMERIS_TYPE = 0
CLASSIFICATION_TYPE = U
NORAD_CAT_ID   = 26070
ELEMENT_SET_NO = 999
REV_AT_EPOCH   = 34225
BSTAR          = .13649143E-3
MEAN_MOTION_DOT = .221E-5
MEAN_MOTION_DDOT = 0

CCSDS_OMM_VERS = 2.0
CREATION_DATE  = 
ORIGINATOR     = 

OBJECT_NAME    = TITAN 4B R/B
OBJECT_ID      = 2000-047B
CENTER_NAME    = EARTH
REF_FRAME      = TEME
TIME_SYSTEM    = UTC
MEAN_ELEMENT_THEORY = SGP/SGP4

EPOCH          = 2026-01-25T02:14:08.621376
MEAN_MOTION    = 15.09168550
ECCENTRICITY   = .0036841
INCLINATION    = 67.9891
RA_OF_ASC_NODE = 163.0646
ARG_OF_PERICENTER = 89.8983
MEAN_ANOMALY   = 270.6388

EPHEMERIS_TYPE = 0
CLASSIFICATION_TYPE = U
NORAD_CAT_ID   = 26474
ELEMENT_SET_NO = 999
REV_AT_EPOCH   = 38633
BSTAR          = .43224E-3
MEAN_MOTION_DOT = .6862E-4
MEAN_MOTION_DDOT = 0

CCSDS_OMM_VERS = 2.0
CREATION_DATE  = 
ORIGINATOR     = 

OBJECT_NAME    = ENVISAT
OBJECT_ID      = 2002-009A
CENTER_NAME    = EARTH
REF_FRAME      = TEME
TIME_SYSTEM    = UTC
MEAN_ELEMENT_THEORY = SGP/SGP4

EPOCH          = 2026-01-25T03:28:49.466208
MEAN_MOTION    = 14.39018857
ECCENTRICITY   = .0001228
INCLINATION    = 98.3659
RA_OF_ASC_NODE = 339.7993
ARG_OF_PERICENTER = 91.8734
MEAN_ANOMALY   = 278.8030

EPHEMERIS_TYPE = 0
CLASSIFICATION_TYPE = U
NORAD_CAT_ID   = 27386
ELEMENT_SET_NO = 999
REV_AT_EPOCH   = 25291
BSTAR          = .10469E-3
MEAN_MOTION_DOT = .28E-5
MEAN_MOTION_DDOT = 0

