SL-16 R/B               
1 25400U 98043G   26024.80914507  .00000159  00000+0  85457-4 0  9990
2 25400  98.8185 337.8817 0010520 137.0192 223.1811 14.26038000432731
SL-16 R/B               
1 25407U 98045B   26025.13377005  .00000162  00000+0  10577-3 0  9996
2 25407  71.0108 273.1720 0005124  93.0192 267.1518 14.16186592420936
ISS (ZARYA)             
1 25544U 98067A   26024.81951359  .00017054  00000+0  32584-3 0  9996
2 25544  51.6323 289.2130 0011027  26.4083 333.7465 15.48158028549530
CZ-4B R/B               
1 25732U 99025C   26025.13807657  .00000125  00000+0  80856-4 0  9994
2 25732  98.6708  70.4346 0038153 109.7861 317.1534 14.18255889381990
OKEAN-O                 
1 25860U 99039A   26025.12073911  .00001478  00000+0  20109-3 0  9994
2 25860  97.9534  85.4346 0001878  98.9251 261.2173 14.80256341427940
SL-16 R/B               
1 25861U 99039B   26025.14185831  .00001170  00000+0  15527-3 0  9999
2 25861  98.0060  84.2827 0015704  42.8461 317.3972 14.81663786430414
DELTA 2 R/B             
1 25876U 99041E   26024.69105731  .00003852  00000+0  65649-3 0  9997
2 25876  51.7623 116.9731 0502956 218.4249 137.9846 14.11622434356818
HELIOS 1B               
1 25977U 99064A   26024.65644439  .00003212  00000+0  36076-3 0  9995
2 25977  98.1731 285.5976 0001252 133.9309 226.2010 14.87495541678711
TERRA                   
1 25994U 99068A   26025.15712737  .00000885  00000+0  18965-3 0  9991
2 25994  97.9683  80.2349 0001649 353.8887  67.4686 14.60962389388724
SL-16 R/B               
1 26070U 00006B   26024.14871375  .00000221  00000+0  13649-3 0  9991
2 26070  71.0005 191.4880 0018683 251.5243 108.3850 14.15813685342252
TITAN 4B R/B            
1 26474U 00047B   26025.09315534  .00006862  00000+0  43224-3 0  9998
2 26474  67.9891 163.0646 0036841  89.8983 270.6388 15.09168550386335
ENVISAT                 
1 27386U 02009A   26025.14501697  .00000280  00000+0  10469-3 0  9997
2 27386  98.3659 339.7993 0001228  91.8734 278.8030 14.39018857252919
